[{"OBJECT_NAME":"STARLINK-5994","OBJECT_ID":"2023-064K","EPOCH":"2026-03-09T14:38:24.016416","MEAN_MOTION":14.98326692,"ECCENTRICITY":0.0003007,"INCLINATION":70.0007,"RA_OF_ASC_NODE":144.679,"ARG_OF_PERICENTER":269.9767,"MEAN_ANOMALY":90.1047,"EPHEMERIS_TYPE":0,"CLASSIFICATION_TYPE":"U","NORAD_CAT_ID":56457,"ELEMENT_SET_NO":999,"REV_AT_EPOCH":15523,"BSTAR":-5.1382e-5,"MEAN_MOTION_DOT":-7.06e-6,"MEAN_MOTION_DDOT":0},{"OBJECT_NAME":"CINEMA-2 (KHUSAT-2)","OBJECT_ID":"2013-066J","EPOCH":"2026-03-09T17:51:52.526880","MEAN_MOTION":14.83992002,"ECCENTRICITY":0.00772725,"INCLINATION":97.8811,"RA_OF_ASC_NODE":0.8363,"ARG_OF_PERICENTER":94.4582,"MEAN_ANOMALY":266.5465,"EPHEMERIS_TYPE":0,"CLASSIFICATION_TYPE":"U","NORAD_CAT_ID":39424,"ELEMENT_SET_NO":999,"REV_AT_EPOCH":66134,"BSTAR":0.00039855246,"MEAN_MOTION_DOT":3.441e-5,"MEAN_MOTION_DDOT":0}]
